NORAD_CAT_ID,OBJECT_NAME,OBJECT_TYPE,EPOCH,MEAN_MOTION,ECCENTRICITY,INCLINATION,RA_OF_ASC_NODE,ARG_OF_PERICENTER,MEAN_ANOMALY,BSTAR,MEAN_MOTION_DOT,MEAN_MOTION_DDOT,TLE_LINE0,TLE_LINE1,TLE_LINE2,SEMIMAJOR_AXIS,PERIOD,APOGEE,PERIGEE,DECAYED
49763.0,STARLINK-3198,PAYLOAD,2022-08-18 15:56:15,15.08848841,0.0002084,53.2169,210.6794,53.3689,306.7494,0.00026716,3.967e-05,0.0,0 STARLINK-3198,1 49763U 21115AR  22230.66407212  .00003967  00000-0  26716-3 0  9996,2 49763  53.2169 210.6794 0002084  53.3689 306.7494 15.08848841 39578,6917.853,95.437,541.16,538.2769999999998,0.0
49763.0,STARLINK-3198,PAYLOAD,2022-08-19 11:00:53,15.08846283,0.0002045999999999,53.2165,207.1107,55.2196,304.8988,8.7108e-05,1.099e-05,0.0,0 STARLINK-3198,1 49763U 21115AR  22231.45894876  .00001099  00000-0  87108-4 0  9997,2 49763  53.2165 207.1107 0002046  55.2196 304.8988 15.08846283 40808,6917.861,95.437,541.1419999999998,538.311,0.0
49763.0,STARLINK-3198,PAYLOAD,2022-08-20 04:30:07,15.08836411,0.0001973,53.2162,203.8398,56.5796,303.5385,-0.00011247,-2.078e-05,0.0,0 STARLINK-3198,1 49763U 21115AR  22232.18759173 -.00002078  00000-0 -11247-3 0  9998,2 49763  53.2162 203.8398 0001973  56.5796 303.5385 15.08836411 40919,6917.891,95.438,541.121,538.391,0.0
49763.0,STARLINK-3198,PAYLOAD,2022-08-20 09:16:17,15.0883605,0.0002016,53.2166,202.9479,55.3346,304.7835,-8.1729e-05,-1.589e-05,0.0,0 STARLINK-3198,1 49763U 21115AR  22232.38631439 -.00001589  00000-0 -81729-4 0  9993,2 49763  53.2166 202.9479 0002016  55.3346 304.7835 15.08836050 39831,6917.892,95.438,541.1519999999998,538.363,0.0
49763.0,STARLINK-3198,PAYLOAD,2022-08-21 09:07:04,15.08847976,0.0002095,53.2178,198.4878,53.6336,306.4849,-6.3788e-05,-1.304e-05,0.0,0 STARLINK-3198,1 49763U 21115AR  22233.37991116 -.00001304  00000-0 -63788-4 0  9994,2 49763  53.2178 198.4878 0002095  53.6336 306.4849 15.08847976 39982,6917.856,95.437,541.17,538.2719999999998,0.0
49763.0,STARLINK-3198,PAYLOAD,2022-08-21 21:50:09,15.088317000000002,0.0002059,53.2179,196.1091,54.0494,306.0689,0.00011424,1.53e-05,0.0,0 STARLINK-3198,1 49763U 21115AR  22233.90983766  .00001530  00000-0  11424-3 0  9993,2 49763  53.2179 196.1091 0002059  54.0494 306.0689 15.08831700 40062,6917.906,95.438,541.195,538.346,0.0
49763.0,STARLINK-3198,PAYLOAD,2022-08-22 04:11:43,15.08824146,0.0002046999999999,53.2179,194.9196,53.6898,306.4283,4.8478e-05,4.83e-06,0.0,0 STARLINK-3198,1 49763U 21115AR  22234.17480612  .00000483  00000-0  48478-4 0  9991,2 49763  53.2179 194.9196 0002047  53.6898 306.4283 15.08824146 41212,6917.929,95.439,541.21,538.378,0.0
49763.0,STARLINK-3198,PAYLOAD,2022-08-22 07:22:29,15.08825008,0.0002056,53.2179,194.3251,53.4938,306.6244,5.195e-05,5.38e-06,0.0,0 STARLINK-3198,1 49763U 21115AR  22234.30728668  .00000538  00000-0  51950-4 0  9992,2 49763  53.2179 194.3251 0002056  53.4938 306.6244 15.08825008 40127,6917.926,95.439,541.214,538.369,0.0
49763.0,STARLINK-3198,PAYLOAD,2022-08-22 08:57:52,15.08825461,0.0002059,53.2179,194.0277,53.445,306.6732,5.3252e-05,5.59e-06,0.0,0 STARLINK-3198,1 49763U 21115AR  22234.37352677  .00000559  00000-0  53252-4 0  9992,2 49763  53.2179 194.0277 0002059  53.4450 306.6732 15.08825461 40130,6917.925,95.438,541.214,538.365,0.0
49763.0,STARLINK-3198,PAYLOAD,2022-08-23 04:02:30,15.08834246,0.0002096,53.218,190.4593,54.1363,305.9823,3.7995e-05,3.16e-06,0.0,0 STARLINK-3198,1 49763U 21115AR  22235.16840633  .00000316  00000-0  37995-4 0  9991,2 49763  53.2180 190.4593 0002096  54.1363 305.9823 15.08834246 41365,6917.898,95.438,541.2130000000002,538.313,0.0
49763.0,STARLINK-3198,PAYLOAD,2022-08-23 07:13:16,15.08833901,0.0002108,53.218,189.8647,54.2778,305.841,3.3098e-05,2.38e-06,0.0,0 STARLINK-3198,1 49763U 21115AR  22235.30088717  .00000238  00000-0  33098-4 0  9997,2 49763  53.2180 189.8647 0002108  54.2778 305.8410 15.08833901 40279,6917.899,95.438,541.222,538.306,0.0
49763.0,STARLINK-3198,PAYLOAD,2022-08-24 05:28:40,15.08835628,0.0001943999999999,53.2182,185.7022,58.4555,301.6627,0.00013715,1.895e-05,0.0,0 STARLINK-3198,1 49763U 21115AR  22236.22824505  .00001895  00000-0  13715-3 0  9995,2 49763  53.2182 185.7022 0001944  58.4555 301.6627 15.08835628 40417,6917.894,95.438,541.104,538.414,0.0
49763.0,STARLINK-3198,PAYLOAD,2022-08-24 13:25:35,15.08844384,0.0002110999999999,53.2181,184.2153,55.6125,304.5066,6.557899999999999e-05,7.56e-06,0.0,0 STARLINK-3198,1 49763U 21115AR  22236.55944168  .00000756  00000-0  65579-4 0  9990,2 49763  53.2181 184.2153 0002111  55.6125 304.5066 15.08844384 40467,6917.8669999999975,95.437,541.192,538.2719999999998,0.0
49763.0,STARLINK-3198,PAYLOAD,2022-08-25 05:19:27,15.08837044,0.0002399,53.218,181.2418,47.9778,312.1418,2.6527e-05,1.34e-06,0.0,0 STARLINK-3198,1 49763U 21115AR  22237.22184861  .00000134  00000-0  26527-4 0  9991,2 49763  53.2180 181.2418 0002399  47.9778 312.1418 15.08837044 40565,6917.889,95.438,541.414,538.095,0.0
49763.0,STARLINK-3198,PAYLOAD,2022-08-26 03:34:51,15.08841749,0.0002171,53.2181,177.0791,57.3277,302.7925,6.3727e-06,-1.87e-06,0.0,0 STARLINK-3198,1 49763U 21115AR  22238.14920653 -.00000187  00000-0  63727-5 0  9993,2 49763  53.2181 177.0791 0002171  57.3277 302.7925 15.08841749 41814,6917.875,95.437,541.242,538.238,0.0
49763.0,STARLINK-3198,PAYLOAD,2022-08-26 13:07:09,15.08844867,0.0002174,53.2181,175.295,56.9652,303.1549,2.6312e-05,1.31e-06,0.0,0 STARLINK-3198,1 49763U 21115AR  22238.54664326  .00000131  00000-0  26312-4 0  9995,2 49763  53.2181 175.2950 0002174  56.9652 303.1549 15.08844867 40760,6917.866,95.437,541.234,538.227,0.0
49763.0,STARLINK-3198,PAYLOAD,2022-08-26 21:04:05,15.08847086,0.0002081,53.2181,173.8078,60.1206,299.9993,3.8234e-05,3.2e-06,0.0,0 STARLINK-3198,1 49763U 21115AR  22238.87784045  .00000320  00000-0  38234-4 0  9998,2 49763  53.2181 173.8078 0002081  60.1206 299.9993 15.08847086 40811,6917.859,95.437,541.163,538.284,0.0
49763.0,STARLINK-3198,PAYLOAD,2022-08-27 08:11:47,15.08847536,0.0002228,53.218,171.7264,59.441,300.6802,0.00013612,1.879e-05,0.0,0 STARLINK-3198,1 49763U 21115AR  22239.34151657  .00001879  00000-0  13612-3 0  9990,2 49763  53.2180 171.7264 0002228  59.4410 300.6802 15.08847536 40881,6917.857,95.437,541.264,538.181,0.0
49763.0,STARLINK-3198,PAYLOAD,2022-08-27 19:19:29,15.08839676,0.000216,53.2181,169.6451,60.4862,299.6345,5.2639e-05,5.5e-06,0.0,0 STARLINK-3198,1 49763U 21115AR  22239.80520482  .00000550  00000-0  52639-4 0  9995,2 49763  53.2181 169.6451 0002160  60.4862 299.6345 15.08839676 42061,6917.880999999999,95.438,541.241,538.252,0.0
49763.0,STARLINK-3198,PAYLOAD,2022-08-27 20:54:52,15.08839196,0.0002163,53.2181,169.3477,60.958,299.1629,4.7976e-05,4.75e-06,0.0,0 STARLINK-3198,1 49763U 21115AR  22239.87144534  .00000475  00000-0  47976-4 0  9996,2 49763  53.2181 169.3477 0002163  60.9580 299.1629 15.08839196 40965,6917.8830000000025,95.438,541.244,538.252,0.0
49763.0,STARLINK-3198,PAYLOAD,2022-08-28 12:48:43,15.08846082,0.0002173,53.2181,166.3741,60.6799,299.4411,8.782299999999999e-05,1.11e-05,0.0,0 STARLINK-3198,1 49763U 21115AR  22240.53384053  .00001110  00000-0  87823-4 0  9995,2 49763  53.2181 166.3741 0002173  60.6799 299.4411 15.08846082 41062,6917.861999999999,95.437,541.23,538.224,0.0
49763.0,STARLINK-3198,PAYLOAD,2022-08-28 19:10:15,15.08852502,0.0002221,53.218,165.1845,61.7627,298.3589,0.00014041,1.948e-05,0.0,0 STARLINK-3198,1 49763U 21115AR  22240.79879524  .00001948  00000-0  14041-3 0  9995,2 49763  53.2180 165.1845 0002221  61.7627 298.3589 15.08852502 42215,6917.842,95.437,541.244,538.1709999999998,0.0
49763.0,STARLINK-3198,PAYLOAD,2022-08-28 20:45:39,15.08849592,0.0002230999999999,53.218,164.8873,60.7389,299.3826,0.00020572,2.988e-05,0.0,0 STARLINK-3198,1 49763U 21115AR  22240.86503624  .00002988  00000-0  20572-3 0  9999,2 49763  53.2180 164.8873 0002231  60.7389 299.3826 15.08849592 41115,6917.851,95.437,541.259,538.173,0.0
49763.0,STARLINK-3198,PAYLOAD,2022-08-29 04:42:34,15.08855368,0.0002264,53.2175,163.4006,61.2103,298.9116,0.00023118,3.394e-05,0.0,0 STARLINK-3198,1 49763U 21115AR  22241.19623448  .00003394  00000-0  23118-3 0  9994,2 49763  53.2175 163.4006 0002264  61.2103 298.9116 15.08855368 41168,6917.833000000001,95.437,541.265,538.132,0.0
49763.0,STARLINK-3198,PAYLOAD,2022-08-29 19:01:03,15.0884491,0.0002379999999999,53.2175,160.7246,58.7597,301.3628,0.00011898,1.606e-05,0.0,0 STARLINK-3198,1 49763U 21115AR  22241.79240363  .00001606  00000-0  11898-3 0  9997,2 49763  53.2175 160.7246 0002380  58.7597 301.3628 15.08844910 41259,6917.865,95.437,541.377,538.0840000000002,0.0
49763.0,STARLINK-3198,PAYLOAD,2022-08-30 04:33:23,15.08827711,0.0002204,53.2182,158.9402,62.2981,297.8235,-2.4807e-05,-6.83e-06,0.0,0 STARLINK-3198,1 49763U 21115AR  22242.18985421 -.00000683  00000-0 -24807-4 0  9993,2 49763  53.2182 158.9402 0002204  62.2981 297.8235 15.08827711 42425,6917.918000000002,95.438,541.308,538.258,0.0
49763.0,STARLINK-3198,PAYLOAD,2022-08-30 06:08:46,15.08830205,0.000216,53.2181,158.6429,60.7112,299.4096,-1.6989e-06,-3.15e-06,0.0,0 STARLINK-3198,1 49763U 21115AR  22242.25609230 -.00000315  00000-0 -16989-5 0  9997,2 49763  53.2181 158.6429 0002160  60.7112 299.4096 15.08830205 41323,6917.91,95.438,541.27,538.281,0.0
49763.0,STARLINK-3198,PAYLOAD,2022-08-30 20:27:14,15.08838514,0.0002203,53.2183,155.967,61.7479,298.3736,-1.4982e-05,-5.27e-06,0.0,0 STARLINK-3198,1 49763U 21115AR  22242.85224966 -.00000527  00000-0 -14982-4 0  9997,2 49763  53.2183 155.9670 0002203  61.7479 298.3736 15.08838514 42521,6917.885,95.438,541.274,538.226,0.0
49763.0,STARLINK-3198,PAYLOAD,2022-08-31 05:59:32,15.08843272,0.00022,53.2183,154.1827,62.1194,298.0021,2.4518e-05,1.02e-06,0.0,0 STARLINK-3198,1 49763U 21115AR  22243.24968569  .00000102  00000-0  24518-4 0  9998,2 49763  53.2183 154.1827 0002200  62.1194 298.0021 15.08843272 41476,6917.87,95.437,541.257,538.2130000000002,0.0
